OBJECT_NAME,OBJECT_ID,EPOCH,MEAN_MOTION,ECCENTRICITY,INCLINATION,RA_OF_ASC_NODE,ARG_OF_PERICENTER,MEAN_ANOMALY,EPHEMERIS_TYPE,CLASSIFICATION_TYPE,NORAD_CAT_ID,ELEMENT_SET_NO,REV_AT_EPOCH,BSTAR,MEAN_MOTION_DOT,MEAN_MOTION_DDOT
ONEWEB-0365,2021-090N,2026-07-17T19:36:01.893312,13.19726580,.00020952,87.9195,298.8693,103.2155,256.9212,0,U,49291,999,23046,-.20974169E-3,-.71E-6,0
ONEWEB-0366,2021-090P,2026-07-18T04:29:58.380864,13.14502570,.00020323,87.8965,283.5302,98.3289,261.8071,0,U,49292,999,23163,-.37544607E-3,-.126E-5,0
ONEWEB-0367,2021-090Q,2026-07-18T03:32:39.469920,13.20773824,.00022259,87.9183,268.2717,100.5932,259.5452,0,U,49293,999,23391,.19958975E-3,.94E-6,0
ONEWEB-0368,2021-090R,2026-07-18T04:44:11.824512,13.20771759,.00016907,87.9172,268.2694,115.5014,244.6295,0,U,49294,999,23507,.78934362E-4,.45E-6,0
ONEWEB-0369,2021-090S,2026-07-18T06:24:15.826176,13.19726658,.00019897,87.9184,298.7850,103.2068,256.9287,0,U,49295,999,23051,.32771956E-4,.26E-6,0
ONEWEB-0370,2021-090T,2026-07-18T03:46:00.276960,13.20772611,.00023212,87.9184,268.2692,93.5733,266.5665,0,U,49296,999,23395,-.18672657E-4,.5E-7,0
ONEWEB-0371,2021-090U,2026-07-18T06:35:38.300640,13.19725653,.00020956,87.9193,298.7779,101.5379,258.5989,0,U,49297,999,23055,.13619048E-3,.67E-6,0
ONEWEB-0372,2021-090V,2026-07-18T03:31:15.104640,13.20769823,.0002093,87.9182,268.2734,99.1855,260.9515,0,U,49298,999,23392,.2578838E-3,.118E-5,0
ONEWEB-0373,2021-090W,2026-07-18T04:07:48.076608,13.20772882,.00020865,87.9183,268.2675,96.0366,264.1005,0,U,49299,999,23511,-.30205629E-4,.1E-7,0
ONEWEB-0374,2021-090X,2026-07-18T04:11:41.176896,13.14502656,.00015173,87.8970,283.5243,89.4969,270.6334,0,U,49300,999,23163,-.23988581E-3,-.76E-6,0
ONEWEB-0375,2021-090Y,2026-07-18T03:50:50.148960,13.20773524,.00016046,87.9186,268.2619,87.2200,272.9117,0,U,49301,999,23461,.29748371E-3,.134E-5,0
ONEWEB-0376,2021-090Z,2026-07-18T06:33:20.849472,13.19727201,.00021262,87.9192,298.7782,105.7272,254.4095,0,U,49302,999,23055,.11358726E-3,.58E-6,0
ONEWEB-0377,2021-090AA,2026-07-18T03:31:38.084448,13.20773789,.00032083,87.9228,268.2721,108.1201,252.0282,0,U,49303,999,23460,-.5079446E-2,-.2052E-4,0
ONEWEB-0378,2021-090AB,2026-07-18T04:00:45.379296,13.20772068,.00019141,87.9180,268.2660,97.8359,262.2991,0,U,49304,999,23387,.8411817E-4,.47E-6,0
ONEWEB-0379,2021-090AC,2026-07-18T04:04:50.794176,13.14502620,.00019017,87.8967,283.5355,99.6635,260.4710,0,U,49305,999,23163,.35605413E-4,.26E-6,0
ONEWEB-0380,2021-090AD,2026-07-18T01:01:17.152032,13.19721631,.00017921,87.9184,298.8274,107.5854,252.5475,0,U,49306,999,23049,.25310893E-2,.1026E-4,0
ONEWEB-0381,2021-090AE,2026-07-18T03:26:35.252448,13.20769854,.00018302,87.9182,268.2725,94.6017,265.5325,0,U,49307,999,23391,.23127167E-3,.107E-5,0
ONEWEB-0382,2021-090AF,2026-07-18T03:07:13.315008,13.20771979,.00017566,87.9181,268.2687,97.9125,262.2207,0,U,49308,999,23390,.2463695E-3,.113E-5,0
ONEWEB-0383,2021-090AG,2026-07-18T03:55:42.752064,13.14502919,.00018827,87.8972,283.5290,102.1943,257.9398,0,U,49309,999,23166,.40431371E-3,.163E-5,0
ONEWEB-0384,2021-090AH,2026-07-18T04:38:32.143776,13.20814509,.00015954,87.9184,268.3000,100.9278,259.2035,0,U,49310,999,23392,.97227717E-4,.53E-6,0
ONEWEB-0385,2021-090AJ,2026-07-18T02:57:30.727584,13.20770210,.00019002,87.9184,268.2756,96.6703,263.4646,0,U,49311,999,23388,.27416436E-3,.124E-5,0
ONEWEB-0386,2021-090AK,2026-07-18T03:21:44.327232,13.20771254,.00018432,87.9184,268.2646,99.0802,261.0539,0,U,49312,999,23390,-.42510543E-3,-.16E-5,0
ONEWEB-0387,2021-090AL,2026-07-18T02:59:56.087808,13.20770151,.00019372,87.9172,268.2847,87.7093,272.4262,0,U,49313,999,23390,.23633352E-3,.109E-5,0
ONEWEB-0388,2021-090AM,2026-07-17T19:26:55.820256,13.19727001,.00018412,87.9186,298.8717,98.2860,261.8482,0,U,49314,999,23045,-.15020697E-4,.7E-7,0
ONEWEB-0389,2021-132A,2026-07-17T22:52:06.478464,13.17649802,.00016764,87.9146,359.7475,83.7751,276.3572,0,U,50469,999,22213,-.3199691E-3,-.111E-5,0
ONEWEB-0390,2021-132B,2026-07-17T22:54:32.350176,13.17648958,.00020728,87.9147,359.7483,90.5841,269.5528,0,U,50470,999,22213,-.49179235E-3,-.178E-5,0
ONEWEB-0391,2021-132C,2026-07-18T04:25:00.807168,13.17648714,.000193,87.9149,359.7125,68.5593,291.5745,0,U,50471,999,22216,-.71931094E-3,-.266E-5,0
ONEWEB-0392,2021-132D,2026-07-17T23:40:42.650400,13.17650905,.00017002,87.9160,359.7222,83.5541,276.5784,0,U,50472,999,22217,.36334331E-4,.27E-6,0
ONEWEB-0393,2021-132E,2026-07-17T23:05:29.939712,13.17647632,.0001772,87.9145,359.7419,88.9835,271.1500,0,U,50473,999,22216,-.1053397E-3,-.28E-6,0
ONEWEB-0394,2021-132F,2026-07-17T19:52:27.463296,13.18684768,.00017424,87.9199,329.3495,97.5828,262.5502,0,U,50474,999,22563,-.9482443E-5,.9E-7,0
