ONEWEB-0365             
1 49291U 21090N   26198.81668858 -.00000071  00000+0 -20974-3 0  9997
2 49291  87.9195 298.8693 0002095 103.2155 256.9212 13.19726580230468
ONEWEB-0366             
1 49292U 21090P   26199.18748126 -.00000126  00000+0 -37545-3 0  9999
2 49292  87.8965 283.5302 0002032  98.3289 261.8071 13.14502570231638
ONEWEB-0367             
1 49293U 21090Q   26199.14767905  .00000094  00000+0  19959-3 0  9993
2 49293  87.9183 268.2717 0002225 100.5932 259.5452 13.20773824233916
ONEWEB-0368             
1 49294U 21090R   26199.19735908  .00000045  00000+0  78934-4 0  9992
2 49294  87.9172 268.2694 0001690 115.5014 244.6295 13.20771759235075
ONEWEB-0369             
1 49295U 21090S   26199.26684984  .00000026  00000+0  32772-4 0  9997
2 49295  87.9184 298.7850 0001989 103.2068 256.9287 13.19726658230512
ONEWEB-0370             
1 49296U 21090T   26199.15694765  .00000005  00000+0 -18673-4 0  9996
2 49296  87.9184 268.2692 0002321  93.5733 266.5665 13.20772611233950
ONEWEB-0371             
1 49297U 21090U   26199.27474885  .00000067  00000+0  13619-3 0  9990
2 49297  87.9193 298.7779 0002095 101.5379 258.5989 13.19725653230554
ONEWEB-0372             
1 49298U 21090V   26199.14670260  .00000118  00000+0  25788-3 0  9999
2 49298  87.9182 268.2734 0002093  99.1855 260.9515 13.20769823233920
ONEWEB-0373             
1 49299U 21090W   26199.17208422  .00000001  00000+0 -30206-4 0  9994
2 49299  87.9183 268.2675 0002086  96.0366 264.1005 13.20772882235113
ONEWEB-0374             
1 49300U 21090X   26199.17478214 -.00000076  00000+0 -23989-3 0  9997
2 49300  87.8970 283.5243 0001517  89.4969 270.6334 13.14502656231636
ONEWEB-0375             
1 49301U 21090Y   26199.16030265  .00000134  00000+0  29748-3 0  9999
2 49301  87.9186 268.2619 0001604  87.2200 272.9117 13.20773524234611
ONEWEB-0376             
1 49302U 21090Z   26199.27315798  .00000058  00000+0  11359-3 0  9993
2 49302  87.9192 298.7782 0002126 105.7272 254.4095 13.19727201230551
ONEWEB-0377             
1 49303U 21090AA  26199.14696857 -.00002052  00000+0 -50794-2 0  9991
2 49303  87.9228 268.2721 0003208 108.1201 252.0282 13.20773789234604
ONEWEB-0378             
1 49304U 21090AB  26199.16719189  .00000047  00000+0  84118-4 0  9997
2 49304  87.9180 268.2660 0001914  97.8359 262.2991 13.20772068233871
ONEWEB-0379             
1 49305U 21090AC  26199.17003234  .00000026  00000+0  35605-4 0  9990
2 49305  87.8967 283.5355 0001901  99.6635 260.4710 13.14502620231637
ONEWEB-0380             
1 49306U 21090AD  26199.04255963  .00001026  00000+0  25311-2 0  9997
2 49306  87.9184 298.8274 0001792 107.5854 252.5475 13.19721631230492
ONEWEB-0381             
1 49307U 21090AE  26199.14346357  .00000107  00000+0  23127-3 0  9990
2 49307  87.9182 268.2725 0001830  94.6017 265.5325 13.20769854233912
ONEWEB-0382             
1 49308U 21090AF  26199.13001522  .00000113  00000+0  24637-3 0  9996
2 49308  87.9181 268.2687 0001756  97.9125 262.2207 13.20771979233905
ONEWEB-0383             
1 49309U 21090AG  26199.16368926  .00000163  00000+0  40431-3 0  9999
2 49309  87.8972 283.5290 0001882 102.1943 257.9398 13.14502919231662
ONEWEB-0384             
1 49310U 21090AH  26199.19342759  .00000053  00000+0  97228-4 0  9995
2 49310  87.9184 268.3000 0001595 100.9278 259.2035 13.20814509233920
ONEWEB-0385             
1 49311U 21090AJ  26199.12327231  .00000124  00000+0  27416-3 0  9997
2 49311  87.9184 268.2756 0001900  96.6703 263.4646 13.20770210233882
ONEWEB-0386             
1 49312U 21090AK  26199.14009638 -.00000160  00000+0 -42511-3 0  9993
2 49312  87.9184 268.2646 0001843  99.0802 261.0539 13.20771254233901
ONEWEB-0387             
1 49313U 21090AL  26199.12495472  .00000109  00000+0  23633-3 0  9992
2 49313  87.9172 268.2847 0001937  87.7093 272.4262 13.20770151233906
ONEWEB-0388             
1 49314U 21090AM  26198.81036829  .00000007  00000+0 -15021-4 0  9996
2 49314  87.9186 298.8717 0001841  98.2860 261.8482 13.19727001230457
ONEWEB-0389             
1 50469U 21132A   26198.95285276 -.00000111  00000+0 -31997-3 0  9999
2 50469  87.9146 359.7475 0001676  83.7751 276.3572 13.17649802222135
ONEWEB-0390             
1 50470U 21132B   26198.95454109 -.00000178  00000+0 -49179-3 0  9998
2 50470  87.9147 359.7483 0002072  90.5841 269.5528 13.17648958222130
ONEWEB-0391             
1 50471U 21132C   26199.18403712 -.00000266  00000+0 -71931-3 0  9998
2 50471  87.9149 359.7125 0001930  68.5593 291.5745 13.17648714222166
ONEWEB-0392             
1 50472U 21132D   26198.98660475  .00000027  00000+0  36334-4 0  9999
2 50472  87.9160 359.7222 0001700  83.5541 276.5784 13.17650905222175
ONEWEB-0393             
1 50473U 21132E   26198.96215208 -.00000028  00000+0 -10534-3 0  9994
2 50473  87.9145 359.7419 0001772  88.9835 271.1500 13.17647632222160
ONEWEB-0394             
1 50474U 21132F   26198.82809564  .00000009  00000+0 -94824-5 0  9998
2 50474  87.9199 329.3495 0001742  97.5828 262.5502 13.18684768225635
